Name,Address,Tel,lat,lon,tag,Name_en,Address_en,Tag_en,Name_id,Address_id,Tag_id
巴基斯坦廚房,基隆市中正區信三路25號,-955,25.132774,121.7451693,清真,巴基斯坦廚房 (Pakistani Kitchen),Keelung City Zhongzheng District 信三路25號,Halal,巴基斯坦廚房 (Pakistan Dapur),Kota Keelung Distrik Zhongzheng 信三路25號,Halal
印度香料王餐廳  ,臺北市中山區玉門街1號(臺北市圓山花博公園集食行樂廣場),-8673,25.0697435,121.5221519,清真,印度香料王餐廳 (Indian Restaurant),Taipei City Zhongshan District 玉門街1號(臺北市圓山花博公園集食行樂廣場),Halal,印度香料王餐廳 (India Restoran),Kota Taipei Distrik Zhongshan 玉門街1號(臺北市圓山花博公園集食行樂廣場),Halal
阿巴得印度廚房,臺北市松山區光復北路130號,-2102,25.0519736,121.5571104,清真,阿巴得印度廚房 (Indian Kitchen),Taipei City Songshan District 光復北路130號,Halal,阿巴得印度廚房 (India Dapur),Kota Taipei Distrik Songshan 光復北路130號,Halal
阿里巴巴的廚房,臺北市中山區南京東路二段56號2樓,-8846,25.0518773,121.5298145,清真,阿里巴巴的廚房 (Kitchen),Taipei City Zhongshan District 南京東路二段56號2樓,Halal,阿里巴巴的廚房 (Dapur),Kota Taipei Distrik Zhongshan 南京東路二段56號2樓,Halal
泰姬印度餐廳,臺北市大安區市民大道四段48巷1號,-8064,25.0447362,121.5458423,清真,泰姬印度餐廳 (Indian Taj Restaurant),Taipei City Da’an District 市民大道四段48巷1號,Halal,泰姬印度餐廳 (India Taj Restoran),Kota Taipei Distrik Daan 市民大道四段48巷1號,Halal
張家清真黃牛肉麵館,臺北市中正區延平南路21號,-4238,25.045725,121.510765,清真,張家清真黃牛肉麵館 (Halal Beef Noodles Beef Noodle House Noodles),Taipei City Zhongzheng District 延平南路21號,Halal,張家清真黃牛肉麵館 (Halal Mi Daging Sapi Daging Sapi Rumah Mie Mie),Kota Taipei Distrik Zhongzheng 延平南路21號,Halal
清真昆明園餐廳,臺北市松山區復興北路81巷26號,-8643,25.0510673,121.545166,清真,清真昆明園餐廳 (Halal Restaurant),Taipei City Songshan District 復興北路81巷26號,Halal,清真昆明園餐廳 (Halal Restoran),Kota Taipei Distrik Songshan 復興北路81巷26號,Halal
清真泰富豪,臺北市松山區北寧路36號,-2223,25.0494732,121.5527725,清真,清真泰富豪 (Halal),Taipei City Songshan District 北寧路36號,Halal,清真泰富豪 (Halal),Kota Taipei Distrik Songshan 北寧路36號,Halal
清真黃牛肉麵館,臺北市中正區延平南路23號,-9650,25.0456123,121.5107851,清真,清真黃牛肉麵館 (Halal Beef Noodles Beef Noodle House Noodles),Taipei City Zhongzheng District 延平南路23號,Halal,清真黃牛肉麵館 (Halal Mi Daging Sapi Daging Sapi Rumah Mie Mie),Kota Taipei Distrik Zhongzheng 延平南路23號,Halal
莎堤亞印度料理,臺北市中正區信義路二段195號2樓,-3972,25.0342592,121.5296359,清真,莎堤亞印度料理 (Indian),Taipei City Zhongzheng District 信義路二段195號2樓,Halal,莎堤亞印度料理 (India),Kota Taipei Distrik Zhongzheng 信義路二段195號2樓,Halal
番紅花城土耳其餐廳,臺北市中山區南京東路二段60號,-4577,25.051831,121.529944,清真,番紅花城土耳其餐廳 (Turkish Restaurant),Taipei City Zhongshan District 南京東路二段60號,Halal,番紅花城土耳其餐廳 (Turki Restoran),Kota Taipei Distrik Zhongshan 南京東路二段60號,Halal
塔吉摩洛哥料理,臺北市大安區基隆路二段144巷3號1樓,-9144,25.0283333,121.5563889,清真,塔吉摩洛哥料理 (Moroccan),Taipei City Da’an District 基隆路二段144巷3號1樓,Halal,塔吉摩洛哥料理 (Maroko),Kota Taipei Distrik Daan 基隆路二段144巷3號1樓,Halal
羅亞咖啡&餐廳,臺北市大安區新生南路二段72號1樓,-2790,25.0275671,121.5344645,清真,羅亞咖啡&餐廳 (Cafe Restaurant),Taipei City Da’an District 新生南路二段72號1樓,Halal,羅亞咖啡&餐廳 (Kafe Restoran),Kota Taipei Distrik Daan 新生南路二段72號1樓,Halal
饗印印度巴基斯坦料理餐廳,臺北市信義區基隆路一段366號,-17268,25.0409201,121.5720055,清真,饗印印度巴基斯坦料理餐廳 (Pakistani Indian Restaurant),Taipei City Xinyi District 基隆路一段366號,Halal,饗印印度巴基斯坦料理餐廳 (Pakistan India Restoran),Kota Taipei Distrik Xinyi 基隆路一段366號,Halal
原味德里北車店,臺北市中正區北平西路3號2樓,+886-2-6632-8999#2534,25.0477467,121.5169983,清真,原味德里北車店,Taipei City Zhongzheng District 北平西路3號2樓,Halal,原味德里北車店,Kota Taipei Distrik Zhongzheng 北平西路3號2樓,Halal
酷思多披薩,臺北市中正區連雲街74-1號,-8475,25.0342863,121.5299596,清真,酷思多披薩 (Pizza),Taipei City Zhongzheng District 連雲街74-1號,Halal,酷思多披薩 (Pizza),Kota Taipei Distrik Zhongzheng 連雲街74-1號,Halal
突厥廚房台科大店,臺北市大安區基隆路四段43號(第3學生餐廳),-966,25.0120689,121.5409434,清真,突厥廚房台科大店 (Kitchen),Taipei City Da’an District 基隆路四段43號(第3學生餐廳),Halal,突厥廚房台科大店 (Dapur),Kota Taipei Distrik Daan 基隆路四段43號(第3學生餐廳),Halal
突厥廚房兒童新樂園店,臺北市士林區承德路五段55號,-966,25.0972351,121.514951,清真,突厥廚房兒童新樂園店 (Kitchen),Taipei City Shilin District 承德路五段55號,Halal,突厥廚房兒童新樂園店 (Dapur),Kota Taipei Distrik Shilin 承德路五段55號,Halal
真的好海鮮餐廳,臺北市大安區復興南路一段222號,-4887,25.0391679,121.5434402,清真,真的好海鮮餐廳 (Restaurant),Taipei City Da’an District 復興南路一段222號,Halal,真的好海鮮餐廳 (Restoran),Kota Taipei Distrik Daan 復興南路一段222號,Halal
頂鮮101美食美景餐廳,臺北市信義區信義路五段七號臺北101大樓86樓,-15903,25.033976,121.5645389,清真,頂鮮101美食美景餐廳 (Restaurant),Taipei City Xinyi District 信義路五段七號臺北101大樓86樓,Halal,頂鮮101美食美景餐廳 (Restoran),Kota Taipei Distrik Xinyi 信義路五段七號臺北101大樓86樓,Halal
大安東尼義大利餐廳101店,臺北市信義區市府路45號5樓,-15485,25.0334929,121.564101,清真,大安東尼義大利餐廳101店 (Restaurant),Taipei City Xinyi District 市府路45號5樓,Halal,大安東尼義大利餐廳101店 (Restoran),Kota Taipei Distrik Xinyi 市府路45號5樓,Halal
大安東尼義大利餐廳民生店,臺北市中山區民生東路二段178號,-3133,25.057675,121.5364812,清真,大安東尼義大利餐廳民生店 (Restaurant),Taipei City Zhongshan District 民生東路二段178號,Halal,大安東尼義大利餐廳民生店 (Restoran),Kota Taipei Distrik Zhongshan 民生東路二段178號,Halal
冰館永康店,臺北市大安區信義路二段204號,-3737,25.03346,121.5304751,清真,冰館永康店,Taipei City Da’an District 信義路二段204號,Halal,冰館永康店,Kota Taipei Distrik Daan 信義路二段204號,Halal
冰館松高店,臺北市信義區松高路16號,-7429,25.0385509,121.567355,清真,冰館松高店,Taipei City Xinyi District 松高路16號,Halal,冰館松高店,Kota Taipei Distrik Xinyi 松高路16號,Halal
阿拉丁咖哩屋,臺北市士林區中山北路五段250號,-1567,25.0862558,121.5275442,清真,阿拉丁咖哩屋 (Curry),Taipei City Shilin District 中山北路五段250號,Halal,阿拉丁咖哩屋 (Kari),Kota Taipei Distrik Shilin 中山北路五段250號,Halal
炸雞大獅大直店,臺北市中山區敬業三路123號2樓,-13925,25.0812115,121.5557198,清真,炸雞大獅大直店 (Fried Chicken),Taipei City Zhongshan District 敬業三路123號2樓,Halal,炸雞大獅大直店 (Ayam Goreng),Kota Taipei Distrik Zhongshan 敬業三路123號2樓,Halal
炸雞大獅公館店,臺北市中正區羅斯福路三段316巷3號,-4035,25.0157225,121.5325589,清真,炸雞大獅公館店 (Fried Chicken),Taipei City Zhongzheng District 羅斯福路三段316巷3號,Halal,炸雞大獅公館店 (Ayam Goreng),Kota Taipei Distrik Zhongzheng 羅斯福路三段316巷3號,Halal
炸雞大獅南港店,臺北市南港區經貿二路1號,-9840,25.0560908,121.61759,清真,炸雞大獅南港店 (Fried Chicken),Taipei City Nangang District 經貿二路1號,Halal,炸雞大獅南港店 (Ayam Goreng),Kota Taipei Distrik Nangang 經貿二路1號,Halal
炸雞大獅南港二館店,臺北市南港區經貿二路2號2館B1,-7316,25.0560263,121.6162474,清真,炸雞大獅南港二館店 (Fried Chicken),Taipei City Nangang District 經貿二路2號2館B1,Halal,炸雞大獅南港二館店 (Ayam Goreng),Kota Taipei Distrik Nangang 經貿二路2號2館B1,Halal
炸雞大獅內湖店,臺北市內湖區民善街88號 (家樂福內湖店1樓美食街),-11079,25.0601454,121.5747795,清真,炸雞大獅內湖店 (Fried Chicken),Taipei City Neihu District 民善街88號 (家樂福內湖店1樓美食街),Halal,炸雞大獅內湖店 (Ayam Goreng),Kota Taipei Distrik Neihu 民善街88號 (家樂福內湖店1樓美食街),Halal
炸雞大獅板橋愛買店,新北市板橋區貴興路101號1樓,-8170,25.001947,121.4564781,清真,炸雞大獅板橋愛買店 (Fried Chicken),New Taipei City Banqiao District 貴興路101號1樓,Halal,炸雞大獅板橋愛買店 (Ayam Goreng),Kota New Taipei Distrik Banqiao 貴興路101號1樓,Halal
炸雞大獅桃園筷食尚店,桃園市桃園區中正路47號1F,-2184,24.990799,121.31281,清真,炸雞大獅桃園筷食尚店 (Fried Chicken),Taoyuan City Taoyuan District 中正路47號1F,Halal,炸雞大獅桃園筷食尚店 (Ayam Goreng),Kota Taoyuan Distrik Taoyuan 中正路47號1F,Halal
炸雞大獅桃園捷運A18站店,桃園市中壢區高鐵北路一段5號(桃園捷運高鐵A18站2F),-4691,25.01374,121.2140636,清真,炸雞大獅桃園捷運A18站店 (Fried Chicken),Taoyuan City Zhongli District 高鐵北路一段5號(桃園捷運高鐵A18站2F),Halal,炸雞大獅桃園捷運A18站店 (Ayam Goreng),Kota Taoyuan Distrik Zhongli 高鐵北路一段5號(桃園捷運高鐵A18站2F),Halal
梅居休閒農場,臺北市士林區平菁街43巷99號,-364,25.1413207,121.5751742,清真,梅居休閒農場,Taipei City Shilin District 平菁街43巷99號,Halal,梅居休閒農場,Kota Taipei Distrik Shilin 平菁街43巷99號,Halal
清真肆集,臺北市大同區迪化街一段347號,-9535,25.0629241,121.5093435,清真,清真肆集 (Halal),Taipei City Datong District 迪化街一段347號,Halal,清真肆集 (Halal),Kota Taipei Distrik Datong 迪化街一段347號,Halal
鳥哲燒物,臺北市士林區福華路128巷12號,-2113,25.102888,121.5232094,清真,鳥哲燒物,Taipei City Shilin District 福華路128巷12號,Halal,鳥哲燒物,Kota Taipei Distrik Shilin 福華路128巷12號,Halal
H.T. Burger,臺北市大安區敦化南路二段203號B2,-9321,25.0263454,121.549434,清真,H.T. Burger,Taipei City Da’an District 敦化南路二段203號B2,Halal,H.T. Burger,Kota Taipei Distrik Daan 敦化南路二段203號B2,Halal
泰旺穆斯林泰式餐廳,新北市中和區南華路50號1樓,-7546,24.9972393,121.5044305,清真,泰旺穆斯林泰式餐廳 (Thai Restaurant),New Taipei City Zhonghe District 南華路50號1樓,Halal,泰旺穆斯林泰式餐廳 (Thailand Restoran),Kota New Taipei Distrik Zhonghe 南華路50號1樓,Halal
瑪莎拉印度餐廳板橋店,新北市板橋區文化路二段476號,-15712,25.0328557,121.4751419,清真,瑪莎拉印度餐廳板橋店 (Indian Restaurant),New Taipei City Banqiao District 文化路二段476號,Halal,瑪莎拉印度餐廳板橋店 (India Restoran),Kota New Taipei Distrik Banqiao 文化路二段476號,Halal
瑪莎拉印度餐廳三芝店,新北市三芝區北勢子12-7號,-7538,25.2552397,121.4746449,清真,瑪莎拉印度餐廳三芝店 (Indian Restaurant),New Taipei City Sanzhi District 北勢子12-7號,Halal,瑪莎拉印度餐廳三芝店 (India Restoran),Kota New Taipei Distrik Sanzhi 北勢子12-7號,Halal
泰式清真廚房,新北市永和區中興街92號1樓,-10695,25.0121851,121.5188094,清真,泰式清真廚房 (Thai Halal Kitchen),New Taipei City Yonghe District 中興街92號1樓,Halal,泰式清真廚房 (Thailand Halal Dapur),Kota New Taipei Distrik Yonghe 中興街92號1樓,Halal
突厥廚房淡水店,新北市淡水區中正路71號,-966,25.1695832,121.440806,清真,突厥廚房淡水店 (Kitchen),New Taipei City Tamsui District 中正路71號,Halal,突厥廚房淡水店 (Dapur),Kota New Taipei Distrik Tamsui 中正路71號,Halal
印度香料王永和店,新北市永和區竹林路225巷50號,-10038,25.0086256,121.5226898,清真,印度香料王永和店 (Indian),New Taipei City Yonghe District 竹林路225巷50號,Halal,印度香料王永和店 (India),Kota New Taipei Distrik Yonghe 竹林路225巷50號,Halal
達卡印度廚房,新北市林口區文化三路一段171號,-3436,25.0694375,121.3617749,清真,達卡印度廚房 (Indian Kitchen),New Taipei City Linkou District 文化三路一段171號,Halal,達卡印度廚房 (India Dapur),Kota New Taipei Distrik Linkou 文化三路一段171號,Halal
炸雞大獅林口店,新北市林口區文化三路一段356號,-5290,25.0713425,121.3653309,清真,炸雞大獅林口店 (Fried Chicken),New Taipei City Linkou District 文化三路一段356號,Halal,炸雞大獅林口店 (Ayam Goreng),Kota New Taipei Distrik Linkou 文化三路一段356號,Halal
新北炸雞大獅樹林店,新北市樹林區鎮前街112號3樓,-13741,24.9906372,121.4266486,清真,新北炸雞大獅樹林店 (Fried Chicken),New Taipei City Shulin District 鎮前街112號3樓,Halal,新北炸雞大獅樹林店 (Ayam Goreng),Kota New Taipei Distrik Shulin 鎮前街112號3樓,Halal
淡水紅樓中餐廳,新北市淡水區三民街二巷6號,-8915,25.1712682,121.4394335,清真,淡水紅樓中餐廳 (Restaurant),New Taipei City Tamsui District 三民街二巷6號,Halal,淡水紅樓中餐廳 (Restoran),Kota New Taipei Distrik Tamsui 三民街二巷6號,Halal
清真合閃妹小廚,桃園市中壢區中正五路186號,333,24.9280144,121.2537053,清真,清真合閃妹小廚 (Halal),Taoyuan City Zhongli District 中正五路186號,Halal,清真合閃妹小廚 (Halal),Kota Taoyuan Distrik Zhongli 中正五路186號,Halal
不一樣小吃,桃園市中壢區龍東路46號,-9027,24.9281956,121.2503513,清真,不一樣小吃,Taoyuan City Zhongli District 龍東路46號,Halal,不一樣小吃,Kota Taoyuan Distrik Zhongli 龍東路46號,Halal
莎堤亞印度料理桃園店,桃園市桃園區中正路20號9樓,53,24.9897388,121.3137948,清真,莎堤亞印度料理桃園店 (Indian),Taoyuan City Taoyuan District 中正路20號9樓,Halal,莎堤亞印度料理桃園店 (India),Kota Taoyuan Distrik Taoyuan 中正路20號9樓,Halal
華珍印尼餐坊,桃園市中壢區新興路212號,-2511,24.9535408,121.2277059,清真,華珍印尼餐坊,Taoyuan City Zhongli District 新興路212號,Halal,華珍印尼餐坊,Kota Taoyuan Distrik Zhongli 新興路212號,Halal
夢華印尼式餐坊,桃園市中壢區中正五路103號,-7365,24.9300796,121.2547613,清真,夢華印尼式餐坊,Taoyuan City Zhongli District 中正五路103號,Halal,夢華印尼式餐坊,Kota Taoyuan Distrik Zhongli 中正五路103號,Halal
匠骰子牛麻辣麵 台灣桃園店 (J&D BEEF NOODLES),桃園市蘆竹區桃園街95號1樓,-1464,25.0453407,121.2919727,清真,匠骰子牛麻辣麵 台灣桃園店 (J&D BEEF NOODLES) (Noodles),Taoyuan City Luzhu District 桃園街95號1樓,Halal,匠骰子牛麻辣麵 台灣桃園店 (J&D BEEF NOODLES) (Mie),Kota Taoyuan Distrik Luzhu 桃園街95號1樓,Halal
炸雞大獅桃園車站店,桃園市桃園區中正路1號2樓C4右,-2949,24.9891024,121.3136822,清真,炸雞大獅桃園車站店 (Fried Chicken),Taoyuan City Taoyuan District 中正路1號2樓C4右,Halal,炸雞大獅桃園車站店 (Ayam Goreng),Kota Taoyuan Distrik Taoyuan 中正路1號2樓C4右,Halal
桃園炸雞大獅中壢店,桃園市中壢區中和路139號,-8425,24.9534835,121.2260597,清真,桃園炸雞大獅中壢店 (Fried Chicken),Taoyuan City Zhongli District 中和路139號,Halal,桃園炸雞大獅中壢店 (Ayam Goreng),Kota Taoyuan Distrik Zhongli 中和路139號,Halal
肉先生蔬菜健康盒,桃園市蘆竹區桃園街95號1樓,-1464,25.0453407,121.2919727,清真,肉先生蔬菜健康盒,Taoyuan City Luzhu District 桃園街95號1樓,Halal,肉先生蔬菜健康盒,Kota Taoyuan Distrik Luzhu 桃園街95號1樓,Halal
中平素食之家,桃園市中壢區新興路210號,-3835,24.953512,121.2276785,清真,中平素食之家 (Vegetarian),Taoyuan City Zhongli District 新興路210號,Halal,中平素食之家 (Vegetarian),Kota Taoyuan Distrik Zhongli 新興路210號,Halal
點食齋素料理,桃園市平鎮區貿東路38號,-2861,24.9271401,121.253408,清真,點食齋素料理,Taoyuan City 平鎮區 貿東路38號,Halal,點食齋素料理,Kota Taoyuan 平鎮區 貿東路38號,Halal
阿美金三角點心,桃園市平鎮區中山路134號,412,24.9274939,121.255596,清真,阿美金三角點心,Taoyuan City 平鎮區 中山路134號,Halal,阿美金三角點心,Kota Taoyuan 平鎮區 中山路134號,Halal
清真合醬菜館,桃園市八德區龍宮街33巷54弄2號,-3731351,24.9256529,121.2575734,清真,清真合醬菜館 (Halal),Taoyuan City Bade District 龍宮街33巷54弄2號,Halal,清真合醬菜館 (Halal),Kota Taoyuan Distrik Bade 龍宮街33巷54弄2號,Halal
阿拉丁餐廳,新竹縣關西鎮仁安里拱子溝60號,-5329,24.824623,121.1834459,清真,阿拉丁餐廳 (Restaurant),Hsinchu County Guanxi Township 仁安里拱子溝60號,Halal,阿拉丁餐廳 (Restoran),Kabupaten Hsinchu Kecamatan Guanxi 仁安里拱子溝60號,Halal
安拿朵利亞土耳其餐廳,臺中市西區精誠路150號,-3624,24.1525659,120.6549585,清真,安拿朵利亞土耳其餐廳 (Turkish Restaurant),Taichung City West District 精誠路150號,Halal,安拿朵利亞土耳其餐廳 (Turki Restoran),Kota Taichung Distrik Barat 精誠路150號,Halal
Ummi印尼料理,彰化縣彰化市中正路一段496號,-4383,24.082226,120.5411879,清真,Ummi印尼料理,Changhua County Changhua City 中正路一段496號,Halal,Ummi印尼料理,Kabupaten Changhua Kota Changhua 中正路一段496號,Halal
掬翠拾煙,彰化縣鹿港鎮金盛巷10號,-9008,24.0527255,120.4353157,清真,掬翠拾煙,Changhua County Lukang Township 金盛巷10號,Halal,掬翠拾煙,Kabupaten Changhua Kecamatan Lukang 金盛巷10號,Halal
馬雅餐廳,南投縣魚池鄉大林村金天巷45號,-4813,23.8683361,120.9486564,清真,馬雅餐廳 (Restaurant),Nantou County Yuchi Township 大林村金天巷45號,Halal,馬雅餐廳 (Restoran),Kabupaten Nantou Kecamatan Yuchi 大林村金天巷45號,Halal
蔡記東華食府,南投縣埔里鎮信義路1060-1號,-8320,23.9713074,120.9564358,清真,蔡記東華食府,Nantou County Puli Township 信義路1060-1號,Halal,蔡記東華食府,Kabupaten Nantou Kecamatan Puli 信義路1060-1號,Halal
爵士印尼風小館,嘉義市西區西門街1號,-6665,23.4803991,120.4242406,清真,爵士印尼風小館 (Bistro),Chiayi City West District 西門街1號,Halal,爵士印尼風小館 (Bistro),Kota Chiayi Distrik Barat 西門街1號,Halal
烏司答土耳其居家料理,嘉義市東區東洋新村240號,-5380,23.4815472,120.4846325,清真,烏司答土耳其居家料理 (Turkish),Chiayi City East District 東洋新村240號,Halal,烏司答土耳其居家料理 (Turki),Kota Chiayi Distrik Timur 東洋新村240號,Halal
瑪翡餐廳,嘉義縣阿里山鄉樂野村4鄰127-2號,-2163,23.4570375,120.7062535,清真,瑪翡餐廳 (Restaurant),Chiayi County Alishan Township 樂野村4鄰127-2號,Halal,瑪翡餐廳 (Restoran),Kabupaten Chiayi Kecamatan Alishan 樂野村4鄰127-2號,Halal
烏司答土耳其居家料理臺南店,臺南市中西區開山路129號,-9293,22.9886004,120.2081223,清真,烏司答土耳其居家料理臺南店 (Turkish),Tainan City West Central District 開山路129號,Halal,烏司答土耳其居家料理臺南店 (Turki),Kota Tainan Distrik West Central 開山路129號,Halal
修安扁擔豆花,臺南市中西區國華街三段157號,-415,22.9971844,120.1987348,清真,修安扁擔豆花,Tainan City West Central District 國華街三段157號,Halal,修安扁擔豆花,Kota Tainan Distrik West Central 國華街三段157號,Halal
陳莉莉印尼美食五福店,高雄市鹽埕區五福四路276號,-2780,22.6235157,120.2837442,清真,陳莉莉印尼美食五福店,Kaohsiung City Yancheng District 五福四路276號,Halal,陳莉莉印尼美食五福店,Kota Kaohsiung Distrik Yancheng 五福四路276號,Halal
爪哇娃印尼餐廳,高雄市新興區南華路217號,-9560,22.6283893,120.3060706,清真,爪哇娃印尼餐廳 (Restaurant),Kaohsiung City Xinxing District 南華路217號,Halal,爪哇娃印尼餐廳 (Restoran),Kota Kaohsiung Distrik Xinxing 南華路217號,Halal
瑪丁娜印度小館,花蓮縣花蓮市和平路482號,-4871,23.9767224,121.6014226,清真,瑪丁娜印度小館 (Indian Bistro),Hualien County Hualien City 和平路482號,Halal,瑪丁娜印度小館 (India Bistro),Kabupaten Hualien Kota Hualien 和平路482號,Halal
益臺灣餐廳,臺東縣臺東市志航路一段105號,-9474,22.7790297,121.1269598,清真,益臺灣餐廳 (Restaurant),Taitung County Taitung City 志航路一段105號,Halal,益臺灣餐廳 (Restoran),Kabupaten Taitung Kota Taitung 志航路一段105號,Halal
棉花堡土耳其餐廳,高雄市三民區民族一路427號2樓,-2127,22.6564789,120.315206,清真,棉花堡土耳其餐廳 (Turkish Restaurant),Kaohsiung City Sanmin District 民族一路427號2樓,Halal,棉花堡土耳其餐廳 (Turki Restoran),Kota Kaohsiung Distrik Sanmin 民族一路427號2樓,Halal
淞子坊健康素食,臺南市永康區永大路三段328號,-687,23.0328664,120.25993,清真,淞子坊健康素食 (Vegetarian),Tainan City Yongkang District 永大路三段328號,Halal,淞子坊健康素食 (Vegetarian),Kota Tainan Distrik Yongkang 永大路三段328號,Halal
芋頭賞甜品專賣店,臺南市北區北園街56號,-8406,23.0117159,120.2231526,清真,芋頭賞甜品專賣店,Tainan City North District 北園街56號,Halal,芋頭賞甜品專賣店,Kota Tainan Distrik Utara 北園街56號,Halal
韓金婆婆,臺南市中西區赤崁街1號,421,22.997369,120.202014,清真,韓金婆婆,Tainan City West Central District 赤崁街1號,Halal,韓金婆婆,Kota Tainan Distrik West Central 赤崁街1號,Halal
夥茶,臺南市中西區永福路二段115號,-1349,22.9935839,120.2010681,清真,夥茶 (Tea),Tainan City West Central District 永福路二段115號,Halal,夥茶 (Teh),Kota Tainan Distrik West Central 永福路二段115號,Halal
中東創意bbq料理,臺北市信義區信義路六段93號,-3505,25.0354868,121.5771435,清真,中東創意bbq料理 (Middle Eastern),Taipei City Xinyi District 信義路六段93號,Halal,中東創意bbq料理 (Timur Tengah),Kota Taipei Distrik Xinyi 信義路六段93號,Halal
北平金廚新蔬食料理,臺北市士林區天母西路38巷3號,-10669,25.1181567,121.5262121,清真,北平金廚新蔬食料理 (Vegetarian),Taipei City Shilin District 天母西路38巷3號,Halal,北平金廚新蔬食料理 (Vegetarian),Kota Taipei Distrik Shilin 天母西路38巷3號,Halal
禪廚新蔬食料理,苗栗縣頭屋鄉象山路188號,222,24.5783069,120.8580378,清真,禪廚新蔬食料理 (Vegetarian),Miaoli County Touwu Township 象山路188號,Halal,禪廚新蔬食料理 (Vegetarian),Kabupaten Miaoli Kecamatan Touwu 象山路188號,Halal
光芒果子．小旅行義大利冰淇淋,臺南市玉井區中正路103號,-1144,23.1060822,120.4703258,清真,光芒果子．小旅行義大利冰淇淋,Tainan City Yujing District 中正路103號,Halal,光芒果子．小旅行義大利冰淇淋,Kota Tainan Distrik Yujing 中正路103號,Halal
媽媽咪亞南洋料理,臺南市南區中華西路1段192號1樓,-5331,22.9651878,120.1835442,清真,媽媽咪亞南洋料理,Tainan City South District 中華西路1段192號1樓,Halal,媽媽咪亞南洋料理,Kota Tainan Distrik Selatan 中華西路1段192號1樓,Halal
小新划島,臺南市東區北門路一段228號,-1066,22.9946715,120.2119507,清真,小新划島,Tainan City East District 北門路一段228號,Halal,小新划島,Kota Tainan Distrik Timur 北門路一段228號,Halal
陋室茗咖啡館,臺南市新營區三民路56號,-6751,23.307582,120.318216,清真,陋室茗咖啡館 (Cafe),Tainan City Xinying District 三民路56號,Halal,陋室茗咖啡館 (Kafe),Kota Tainan Distrik Xinying 三民路56號,Halal
茶湯會台南成功店,臺南市北區成功路384號,-2522,23.0003197,120.1999638,清真,茶湯會台南成功店 (Tea),Tainan City North District 成功路384號,Halal,茶湯會台南成功店 (Teh),Kota Tainan Distrik Utara 成功路384號,Halal
無事之森 X 賀覓,臺南市北區公園南路370巷27號,-1530,23.0042814,120.2018703,清真,無事之森 X 賀覓,Tainan City North District 公園南路370巷27號,Halal,無事之森 X 賀覓,Kota Tainan Distrik Utara 公園南路370巷27號,Halal
福灣巧克力,屏東縣東港鎮大鵬路100號,-1512,22.4589117,120.482624,清真,福灣巧克力,Pingtung County Donggang Township 大鵬路100號,Halal,福灣巧克力,Kabupaten Pingtung Kecamatan Donggang 大鵬路100號,Halal
青色山脈舒活館                     ,花蓮縣花蓮市豐村122-10號,-1117,24.0098787,121.5907093,清真,青色山脈舒活館,Hualien County Hualien City 豐村122-10號,Halal,青色山脈舒活館,Kabupaten Hualien Kota Hualien 豐村122-10號,Halal
立川漁場五餅二魚餐廳,花蓮縣壽豐鄉共和村魚池路45號,-1315,23.86477,121.522186,清真,立川漁場五餅二魚餐廳 (Restaurant),Hualien County Shoufeng Township 共和村魚池路45號,Halal,立川漁場五餅二魚餐廳 (Restoran),Kabupaten Hualien Kecamatan Shoufeng 共和村魚池路45號,Halal
舞鶴茶園─公主咖啡,花蓮縣瑞穗鄉舞鶴村中正南路二段336號,-226,23.4479003,121.3540722,清真,舞鶴茶園─公主咖啡 (Cafe Tea),Hualien County Ruisui Township 舞鶴村中正南路二段336號,Halal,舞鶴茶園─公主咖啡 (Kafe Teh),Kabupaten Hualien Kecamatan Ruisui 舞鶴村中正南路二段336號,Halal
歇心茶樓,新竹縣峨眉鄉七星村六寮60-8號,-9386,24.6553229,121.0243252,清真,歇心茶樓 (Tea House Tea),Hsinchu County Emei Township 七星村六寮60-8號,Halal,歇心茶樓 (Rumah Teh Teh),Kabupaten Hsinchu Kecamatan Emei 七星村六寮60-8號,Halal
第一鰻波工坊,雲林縣口湖鄉外埔1-2號,-400,23.5973651,120.190128,清真,第一鰻波工坊,Yunlin County Kouhu Township 外埔1-2號,Halal,第一鰻波工坊,Kabupaten Yunlin Kecamatan Kouhu 外埔1-2號,Halal
口湖遊客中心農村社區小舖,雲林縣口湖鄉梧南村光明路163號,-6510,23.5478584,120.1822775,清真,口湖遊客中心農村社區小舖,Yunlin County Kouhu Township 梧南村光明路163號,Halal,口湖遊客中心農村社區小舖,Kabupaten Yunlin Kecamatan Kouhu 梧南村光明路163號,Halal
后咖啡,嘉義縣梅山鄉太平村大坪75-1號,-656,23.5607148,120.6035267,清真,后咖啡 (Cafe),Chiayi County Meishan Township 太平村大坪75-1號,Halal,后咖啡 (Kafe),Kabupaten Chiayi Kecamatan Meishan 太平村大坪75-1號,Halal
阿里山閣餐廳,嘉義縣阿里山鄉香林村1號,-8664,23.5158505,120.8145001,清真,阿里山閣餐廳 (Restaurant),Chiayi County Alishan Township 香林村1號,Halal,阿里山閣餐廳 (Restoran),Kabupaten Chiayi Kecamatan Alishan 香林村1號,Halal
雲境山城,嘉義縣梅山鄉太平村下坑仔2-7,-502,23.5600304,120.6016711,清真,雲境山城,Chiayi County Meishan Township 太平村下坑仔2-7,Halal,雲境山城,Kabupaten Chiayi Kecamatan Meishan 太平村下坑仔2-7,Halal
文峰山坡咖啡,嘉義縣竹崎鄉文峰村溪州仔22號2樓,-1117,23.516811,120.5937482,清真,文峰山坡咖啡 (Cafe),Chiayi County Zhuqi Township 文峰村溪州仔22號2樓,Halal,文峰山坡咖啡 (Kafe),Kabupaten Chiayi Kecamatan Zhuqi 文峰村溪州仔22號2樓,Halal
微笑茶館,嘉義縣竹崎鄉中和村永和1-5號,-455,23.4651036,120.6890958,清真,微笑茶館 (Tea House Tea),Chiayi County Zhuqi Township 中和村永和1-5號,Halal,微笑茶館 (Rumah Teh Teh),Kabupaten Chiayi Kecamatan Zhuqi 中和村永和1-5號,Halal
樺榮海鮮餐廳,嘉義縣東石鄉塭港村52-43號,-104,23.4665127,120.1461258,清真,樺榮海鮮餐廳 (Restaurant),Chiayi County Dongshi Township 塭港村52-43號,Halal,樺榮海鮮餐廳 (Restoran),Kabupaten Chiayi Kecamatan Dongshi 塭港村52-43號,Halal
瑞峰好食,嘉義縣梅山鄉瑞峰村5鄰15號,-1377,23.5563697,120.6679132,清真,瑞峰好食,Chiayi County Meishan Township 瑞峰村5鄰15號,Halal,瑞峰好食,Kabupaten Chiayi Kecamatan Meishan 瑞峰村5鄰15號,Halal
空氣圖書館,嘉義縣梅山鄉太平村下坑仔2號附12,-1742,23.5603506,120.6017443,清真,空氣圖書館,Chiayi County Meishan Township 太平村下坑仔2號附12,Halal,空氣圖書館,Kabupaten Chiayi Kecamatan Meishan 太平村下坑仔2號附12,Halal
然井茗露 ,嘉義縣阿里山鄉樂野村4鄰123之18號,-1632,23.4648548,120.6896642,清真,然井茗露,Chiayi County Alishan Township 樂野村4鄰123之18號,Halal,然井茗露,Kabupaten Chiayi Kecamatan Alishan 樂野村4鄰123之18號,Halal
飲山郁茶館,嘉義縣番路鄉公田村隙頂9-2號,-1642,23.4313726,120.6638193,清真,飲山郁茶館 (Tea House Tea),Chiayi County Fanlu Township 公田村隙頂9-2號,Halal,飲山郁茶館 (Rumah Teh Teh),Kabupaten Chiayi Kecamatan Fanlu 公田村隙頂9-2號,Halal
檜樂坊,嘉義縣竹崎鄉中和村奮起湖107號1樓,-1504,23.5045901,120.6947001,清真,檜樂坊,Chiayi County Zhuqi Township 中和村奮起湖107號1樓,Halal,檜樂坊,Kabupaten Chiayi Kecamatan Zhuqi 中和村奮起湖107號1樓,Halal
清田弄喫茶堂,嘉義縣竹崎鄉中和村奮起湖165-2號,-1073,23.5062727,120.6954261,清真,清田弄喫茶堂 (Tea),Chiayi County Zhuqi Township 中和村奮起湖165-2號,Halal,清田弄喫茶堂 (Teh),Kabupaten Chiayi Kecamatan Zhuqi 中和村奮起湖165-2號,Halal
阿里山樂野鄒築園(咖啡王子),嘉義縣阿里山鄉樂野村2鄰71號,-631,23.4679459,120.7134403,清真,阿里山樂野鄒築園(咖啡王子) (Cafe),Chiayi County Alishan Township 樂野村2鄰71號,Halal,阿里山樂野鄒築園(咖啡王子) (Kafe),Kabupaten Chiayi Kecamatan Alishan 樂野村2鄰71號,Halal
北門嶼輕食風味餐廳,臺南市北門區北門里1鄰3號之5,-209,23.2687352,120.123766,清真,北門嶼輕食風味餐廳 (Restaurant),Tainan City Beimen District 北門里1鄰3號之5,Halal,北門嶼輕食風味餐廳 (Restoran),Kota Tainan Distrik Beimen 北門里1鄰3號之5,Halal
台灣鹽博物館,臺南市七股區鹽埕里69號,-598,23.1540232,120.1029531,清真,台灣鹽博物館,Tainan City Qigu District 鹽埕里69號,Halal,台灣鹽博物館,Kota Tainan Distrik Qigu 鹽埕里69號,Halal
台南井仔腳瓦盤鹽田,臺南市北門區永華里井仔腳,-1535,23.2588308,120.107568,清真,台南井仔腳瓦盤鹽田,Tainan City Beimen District 永華里井仔腳,Halal,台南井仔腳瓦盤鹽田,Kota Tainan Distrik Beimen 永華里井仔腳,Halal
白灣景觀餐廳,澎湖縣湖西鄉林投村26-9號,-148,23.546789,119.6267338,清真,白灣景觀餐廳 (Restaurant),Penghu County Huxi Township 林投村26-9號,Halal,白灣景觀餐廳 (Restoran),Kabupaten Penghu Kecamatan Huxi 林投村26-9號,Halal
及林春咖啡館,澎湖縣湖西鄉林投村1-3號,-3751,23.5594231,119.6428638,清真,及林春咖啡館 (Cafe),Penghu County Huxi Township 林投村1-3號,Halal,及林春咖啡館 (Kafe),Kabupaten Penghu Kecamatan Huxi 林投村1-3號,Halal
阿布都中東料理,臺北市大安區新生南路三段106號2樓之一,-7484,25.0167827,121.5327649,清真,阿布都中東料理 (Middle Eastern),Taipei City Da’an District 新生南路三段106號2樓之一,Halal,阿布都中東料理 (Timur Tengah),Kota Taipei Distrik Daan 新生南路三段106號2樓之一,Halal
極樂寺滴水坊,基隆市信義區信二路270號,( +886-2-2423-1141-8#505),25.130659,121.747298,素食,極樂寺滴水坊,Keelung City Xinyi District 信二路270號,Vegetarian,極樂寺滴水坊,Kota Keelung Distrik Xinyi 信二路270號,Vegetarian
SU 蔬食料理,臺北市北投區光明路228號,( +886-2-2894-6428 ),25.135874,121.505804,素食,SU 蔬食料理 (Vegetarian),Taipei City Beitou District 光明路228號,Vegetarian,SU 蔬食料理 (Vegetarian),Kota Taipei Distrik Beitou 光明路228號,Vegetarian
毫光回田蔬苑,臺北市士林區中正路357號,( +886-2-2883-2168 ),25.094301,121.52219,素食,毫光回田蔬苑,Taipei City Shilin District 中正路357號,Vegetarian,毫光回田蔬苑,Kota Taipei Distrik Shilin 中正路357號,Vegetarian
北平金廚新蔬食料理,臺北市士林區天母西路38巷3號,( +886-2-2873-8680,25.118158,121.526227,素食,北平金廚新蔬食料理 (Vegetarian),Taipei City Shilin District 天母西路38巷3號,Vegetarian,北平金廚新蔬食料理 (Vegetarian),Kota Taipei Distrik Shilin 天母西路38巷3號,Vegetarian
Herban Kitchen & Bar二本餐廳,臺北市大安區忠孝東路四段101巷27號,(  +886-2-8773-7033,25.042963,121.548166,素食,Herban Kitchen & Bar二本餐廳 (Restaurant),Taipei City Da’an District 忠孝東路四段101巷27號,Vegetarian,Herban Kitchen & Bar二本餐廳 (Restoran),Kota Taipei Distrik Daan 忠孝東路四段101巷27號,Vegetarian
果然匯 (饗食天堂集團),臺北市大安區忠孝東路四段200號12樓,(  +886-2-2771-8832,25.041232,121.552014,素食,果然匯 (饗食天堂集團),Taipei City Da’an District 忠孝東路四段200號12樓,Vegetarian,果然匯 (饗食天堂集團),Kota Taipei Distrik Daan 忠孝東路四段200號12樓,Vegetarian
養心茶樓,臺北市中山區松江路128號2樓,(  +886-2-2542-8828,25.052776,121.532806,素食,養心茶樓 (Tea House Tea),Taipei City Zhongshan District 松江路128號2樓,Vegetarian,養心茶樓 (Rumah Teh Teh),Kota Taipei Distrik Zhongshan 松江路128號2樓,Vegetarian
Miacucina復興店,臺北市大安區復興南路一段107巷11號,(  +886-2-2752-8767,25.043728,121.544787,素食,Miacucina復興店,Taipei City Da’an District 復興南路一段107巷11號,Vegetarian,Miacucina復興店,Kota Taipei Distrik Daan 復興南路一段107巷11號,Vegetarian
The Green ROOM,臺北市大安區仁愛路四段300巷25弄3號,(  +886-2-2704-5208,25.035945,121.554627,素食,The Green ROOM,Taipei City Da’an District 仁愛路四段300巷25弄3號,Vegetarian,The Green ROOM,Kota Taipei Distrik Daan 仁愛路四段300巷25弄3號,Vegetarian
梅門防空洞,臺北市中正區延平南路87號B1,(  +886-2-2389-7788,25.043293,121.510837,素食,梅門防空洞,Taipei City Zhongzheng District 延平南路87號B1,Vegetarian,梅門防空洞,Kota Taipei Distrik Zhongzheng 延平南路87號B1,Vegetarian
元禾食堂,臺北市大安區敦化南路一段233巷32號,(  +886-2-2771-6115,25.040268,121.551068,素食,元禾食堂,Taipei City Da’an District 敦化南路一段233巷32號,Vegetarian,元禾食堂,Kota Taipei Distrik Daan 敦化南路一段233巷32號,Vegetarian
若荷蔬食火鍋,臺北市大安區敦化南路一段160巷58號,(  +886-2-2752-0838,25.043498,121.546641,素食,若荷蔬食火鍋 (Vegetarian Hot Pot),Taipei City Da’an District 敦化南路一段160巷58號,Vegetarian,若荷蔬食火鍋 (Vegetarian Hot Pot),Kota Taipei Distrik Daan 敦化南路一段160巷58號,Vegetarian
永康茶書院 回留茶館,臺北市大安區永康街31巷9號,(  +886-2-2392-6707,25.031523,121.530095,素食,永康茶書院 回留茶館 (Tea House Tea),Taipei City Da’an District 永康街31巷9號,Vegetarian,永康茶書院 回留茶館 (Rumah Teh Teh),Kota Taipei Distrik Daan 永康街31巷9號,Vegetarian
之間茶食器,新北市淡水區中正路330號,(  +886-2-2629-7709,25.172999,121.436203,素食,之間茶食器 (Tea),New Taipei City Tamsui District 中正路330號,Vegetarian,之間茶食器 (Teh),Kota New Taipei Distrik Tamsui 中正路330號,Vegetarian
綜也蔬食,新竹市北區世界街114號,(  +886-3-522-4492,24.80774,120.967402,素食,綜也蔬食 (Vegetarian),Hsinchu City North District 世界街114號,Vegetarian,綜也蔬食 (Vegetarian),Kota Hsinchu Distrik Utara 世界街114號,Vegetarian
井町日式蔬食料理,新竹市北區大同路135號,(  +886-3-525-3158,24.806527,120.967228,素食,井町日式蔬食料理 (Vegetarian),Hsinchu City North District 大同路135號,Vegetarian,井町日式蔬食料理 (Vegetarian),Kota Hsinchu Distrik Utara 大同路135號,Vegetarian
日勝客家蔬食,新竹縣新埔鎮中正路329號,(  +886-3-588-2106,24.827758,121.077626,素食,日勝客家蔬食 (Vegetarian),Hsinchu County Xinpu Township 中正路329號,Vegetarian,日勝客家蔬食 (Vegetarian),Kabupaten Hsinchu Kecamatan Xinpu 中正路329號,Vegetarian
一簞食˙蔬食生活,宜蘭縣員山鄉尚深路122號,,24.7229021,121.7218852,素食,一簞食˙蔬食生活 (Vegetarian),Yilan County Yuanshan Township 尚深路122號,Vegetarian,一簞食˙蔬食生活 (Vegetarian),Kabupaten Yilan Kecamatan Yuanshan 尚深路122號,Vegetarian
有機大地健康蔬食餐廳,宜蘭縣礁溪鄉中山路二段51號,(  +886-3-987-0539,24.824615,121.772045,素食,有機大地健康蔬食餐廳 (Vegetarian Restaurant),Yilan County Jiaoxi Township 中山路二段51號,Vegetarian,有機大地健康蔬食餐廳 (Vegetarian Restoran),Kabupaten Yilan Kecamatan Jiaoxi 中山路二段51號,Vegetarian
I-Su 艾蔬食,苗栗縣竹南鎮大營路1號,(  +886-3-746-1932,24.681239,120.87311,素食,I-Su 艾蔬食 (Vegetarian),Miaoli County Zhunan Township 大營路1號,Vegetarian,I-Su 艾蔬食 (Vegetarian),Kabupaten Miaoli Kecamatan Zhunan 大營路1號,Vegetarian
卓也小屋度假園區,苗栗縣三義鄉雙潭村13鄰崩山下1-5號3671,(  +886-3-787-9198,24.391993,120.797306,素食,卓也小屋度假園區,Miaoli County Sanyi Township 雙潭村13鄰崩山下1-5號3671,Vegetarian,卓也小屋度假園區,Kabupaten Miaoli Kecamatan Sanyi 雙潭村13鄰崩山下1-5號3671,Vegetarian
斐麗巴黎廳,臺中市西區五權西六街20巷2號,(  +886-4-2376-8089,24.13901,120.658646,素食,斐麗巴黎廳,Taichung City West District 五權西六街20巷2號,Vegetarian,斐麗巴黎廳,Kota Taichung Distrik Barat 五權西六街20巷2號,Vegetarian
熱浪島南洋蔬食茶堂-直營旗艦店,臺中市南屯區向上路三段536號,(  +886-4-2380-1133,24.145074,120.624293,素食,熱浪島南洋蔬食茶堂-直營旗艦店 (Vegetarian Tea),Taichung City Nantun District 向上路三段536號,Vegetarian,熱浪島南洋蔬食茶堂-直營旗艦店 (Vegetarian Teh),Kota Taichung Distrik Nantun 向上路三段536號,Vegetarian
曙光居蔬食料理,臺中市西屯區大墩十八街104號,(  +886-4-2329-2322,24.157504,120.648893,素食,曙光居蔬食料理 (Vegetarian),Taichung City Xitun District 大墩十八街104號,Vegetarian,曙光居蔬食料理 (Vegetarian),Kota Taichung Distrik Xitun 大墩十八街104號,Vegetarian
卡如那泰式素食 ,臺中市南區國光路216-1號,(  +886-4-2285-6210,24.125879,120.679164,素食,卡如那泰式素食 (Thai Vegetarian),Taichung City South District 國光路216-1號,Vegetarian,卡如那泰式素食 (Thailand Vegetarian),Kota Taichung Distrik Selatan 國光路216-1號,Vegetarian
養素庭迴轉火車素食火鍋,臺中市北屯區崇德路二段208號,(  +886-4-2241-1585,24.173808,120.685826,素食,養素庭迴轉火車素食火鍋 (Vegetarian Hot Pot),Taichung City Beitun District 崇德路二段208號,Vegetarian,養素庭迴轉火車素食火鍋 (Vegetarian Hot Pot),Kota Taichung Distrik Beitun 崇德路二段208號,Vegetarian
天慈健康素食,臺中市北屯區昌平路一段44號,(  +886-4-2236-1699,24.167711,120.693499,素食,天慈健康素食 (Vegetarian),Taichung City Beitun District 昌平路一段44號,Vegetarian,天慈健康素食 (Vegetarian),Kota Taichung Distrik Beitun 昌平路一段44號,Vegetarian
德慧素食生活館,臺中市清水區五權東路178號,(  +886-4-2623-3685,24.275198,120.571979,素食,德慧素食生活館 (Vegetarian),Taichung City Qingshui District 五權東路178號,Vegetarian,德慧素食生活館 (Vegetarian),Kota Taichung Distrik Qingshui 五權東路178號,Vegetarian
空幾何˙自然時蔬百匯,彰化縣彰化市寶山路266號,(  +886-4-711-2858,24.061297,120.561062,素食,空幾何˙自然時蔬百匯,Changhua County Changhua City 寶山路266號,Vegetarian,空幾何˙自然時蔬百匯,Kabupaten Changhua Kota Changhua 寶山路266號,Vegetarian
蒝味蔬食˙懷舊小吃,彰化縣彰化市南郭路一段59號,(   +886-4-728-9597,24.07524,120.545536,素食,蒝味蔬食˙懷舊小吃 (Vegetarian),Changhua County Changhua City 南郭路一段59號,Vegetarian,蒝味蔬食˙懷舊小吃 (Vegetarian),Kabupaten Changhua Kota Changhua 南郭路一段59號,Vegetarian
艾草花舍,雲林縣斗南鎮建國二路199-1號,(   +886-5-597-1939,23.679314,120.469903,素食,艾草花舍,Yunlin County Dounan Township 建國二路199-1號,Vegetarian,艾草花舍,Kabupaten Yunlin Kecamatan Dounan 建國二路199-1號,Vegetarian
田心心蔬食餐坊,南投縣埔里鎮中正三路174號,(   +886-49-299-9351,23.971089,120.96526,素食,田心心蔬食餐坊 (Vegetarian),Nantou County Puli Township 中正三路174號,Vegetarian,田心心蔬食餐坊 (Vegetarian),Kabupaten Nantou Kecamatan Puli 中正三路174號,Vegetarian
雅池園蔬食餐廳,南投縣埔里鎮南環路952號,(   +886-919-724306,23.966843,120.94827,素食,雅池園蔬食餐廳 (Vegetarian Restaurant),Nantou County Puli Township 南環路952號,Vegetarian,雅池園蔬食餐廳 (Vegetarian Restoran),Kabupaten Nantou Kecamatan Puli 南環路952號,Vegetarian
赤崁璽樓,臺南市中西區西門路二段372巷10號,(   +886-6-224-5179,22.990818,120.198178,素食,赤崁璽樓,Tainan City West Central District 西門路二段372巷10號,Vegetarian,赤崁璽樓,Kota Tainan Distrik West Central 西門路二段372巷10號,Vegetarian
月光咖啡館,臺南市東區崇明路405 號2 樓,(   +886-6-290-4749,22.973737,120.223959,素食,月光咖啡館 (Cafe),Tainan City East District 崇明路405 號2 樓,Vegetarian,月光咖啡館 (Kafe),Kota Tainan Distrik Timur 崇明路405 號2 樓,Vegetarian
穀粒自然風味,臺南市中西區永華一街148巷15號,(   +886-6-2939797,22.991823,120.189944,素食,穀粒自然風味,Tainan City West Central District 永華一街148巷15號,Vegetarian,穀粒自然風味,Kota Tainan Distrik West Central 永華一街148巷15號,Vegetarian
好野菜,高雄市苓雅區廣州一街127之4號,(   +886-7-722-9629,22.623241,120.317324,素食,好野菜,Kaohsiung City Lingya District 廣州一街127之4號,Vegetarian,好野菜,Kota Kaohsiung Distrik Lingya 廣州一街127之4號,Vegetarian
Double Veggie蔬食百匯,高雄市新興區中山一路280 號,(   +886-7-973-3586,22.635456,120.302551,素食,Double Veggie蔬食百匯 (Vegetarian),Kaohsiung City Xinxing District 中山一路280 號,Vegetarian,Double Veggie蔬食百匯 (Vegetarian),Kota Kaohsiung Distrik Xinxing 中山一路280 號,Vegetarian
耶蔬蔬食美式餐廳,高雄市前金區六合二路129 號,(   +886-7-285-1219,22.631208,120.296801,素食,耶蔬蔬食美式餐廳 (Vegetarian Restaurant),Kaohsiung City Qianjin District 六合二路129 號,Vegetarian,耶蔬蔬食美式餐廳 (Vegetarian Restoran),Kota Kaohsiung Distrik Qianjin 六合二路129 號,Vegetarian
Flavor自然樸食,高雄市苓雅區林泉街6-2 號,(   +886-7-722-0210,22.62378,120.320011,素食,Flavor自然樸食,Kaohsiung City Lingya District 林泉街6-2 號,Vegetarian,Flavor自然樸食,Kota Kaohsiung Distrik Lingya 林泉街6-2 號,Vegetarian
愛客漢堡蔬食概念館,高雄市左營區崇德路290號,(   +886-7-341-1433,22.676137,120.303531,素食,愛客漢堡蔬食概念館 (Vegetarian),Kaohsiung City Zuoying District 崇德路290號,Vegetarian,愛客漢堡蔬食概念館 (Vegetarian),Kota Kaohsiung Distrik Zuoying 崇德路290號,Vegetarian
漢來蔬食巨蛋店,高雄市左營區博愛二路777號5樓,(   +886-7-555-2882,22.669997,120.302775,素食,漢來蔬食巨蛋店 (Vegetarian),Kaohsiung City Zuoying District 博愛二路777號5樓,Vegetarian,漢來蔬食巨蛋店 (Vegetarian),Kota Kaohsiung Distrik Zuoying 博愛二路777號5樓,Vegetarian
鳳山揪棧,高雄市鳳山區鳳明街71號,(   +886-938-373768,22.627049,120.359027,素食,鳳山揪棧,Kaohsiung City Fengshan District 鳳明街71號,Vegetarian,鳳山揪棧,Kota Kaohsiung Distrik Fengshan 鳳明街71號,Vegetarian
打舖2號店-愛心幼稚園,屏東縣屏東市民享一路161 號,(   +886-8-723-1585,22.675295,120.498226,素食,打舖2號店-愛心幼稚園,Pingtung County Pingtung City 民享一路161 號,Vegetarian,打舖2號店-愛心幼稚園,Kabupaten Pingtung Kota Pingtung 民享一路161 號,Vegetarian
Eske Place Coffee House,屏東縣屏東市民享路142 號,(   +886-8-722-6266,22.675133,120.49946,素食,Eske Place Coffee House,Pingtung County Pingtung City 民享路142 號,Vegetarian,Eske Place Coffee House,Kabupaten Pingtung Kota Pingtung 民享路142 號,Vegetarian
Double Veggie蔬果百匯,花蓮縣花蓮市中正路396 號,(   +886-38-900-069,23.974661,121.603764,素食,Double Veggie蔬果百匯,Hualien County Hualien City 中正路396 號,Vegetarian,Double Veggie蔬果百匯,Kabupaten Hualien Kota Hualien 中正路396 號,Vegetarian
花草空間,花蓮縣花蓮市博愛街140 號,(   +886-38-314-959,23.977431,121.606411,素食,花草空間,Hualien County Hualien City 博愛街140 號,Vegetarian,花草空間,Kabupaten Hualien Kota Hualien 博愛街140 號,Vegetarian
夏安居草食堂,臺東縣台東市中興路一段147 號,(   +886-89-222-646,22.767904,121.144597,素食,夏安居草食堂,Taitung County Taitung City 中興路一段147 號,Vegetarian,夏安居草食堂,Kabupaten Taitung Kota Taitung 中興路一段147 號,Vegetarian
有時散步 Walkabout caf?,臺東縣台東市南京路113 號,(   +886-89-341-891,22.758001,121.147681,素食,有時散步 Walkabout caf?,Taitung County Taitung City 南京路113 號,Vegetarian,有時散步 Walkabout caf?,Kabupaten Taitung Kota Taitung 南京路113 號,Vegetarian
聖母健康會館,臺東縣台東市南京路77 號,(   +886-89-345-719,22.75778,121.147505,素食,聖母健康會館,Taitung County Taitung City 南京路77 號,Vegetarian,聖母健康會館,Kabupaten Taitung Kota Taitung 南京路77 號,Vegetarian
好朋友素食屋,澎湖縣馬公市三多路320號,(   +886-6-926-1158,23.577274,119.572299,素食,好朋友素食屋 (Vegetarian),Penghu County Magong City 三多路320號,Vegetarian,好朋友素食屋 (Vegetarian),Kabupaten Penghu Kota Magong 三多路320號,Vegetarian
永興健康素食,澎湖縣馬公市大智街18巷20弄20號,(   +886-6-926-8605,23.570875,119.571975,素食,永興健康素食 (Vegetarian),Penghu County Magong City 大智街18巷20弄20號,Vegetarian,永興健康素食 (Vegetarian),Kabupaten Penghu Kota Magong 大智街18巷20弄20號,Vegetarian
蔡記饌蔬食坊,澎湖縣馬公市文昌街11號,(   +886-963-229-216,23.573714,119.578957,素食,蔡記饌蔬食坊 (Vegetarian),Penghu County Magong City 文昌街11號,Vegetarian,蔡記饌蔬食坊 (Vegetarian),Kabupaten Penghu Kota Magong 文昌街11號,Vegetarian
永達素食館,澎湖縣馬公市新生路27號,(   +886-6-926-1705，+886-932-815-658,23.568086,119.568739,素食,永達素食館 (Vegetarian),Penghu County Magong City 新生路27號,Vegetarian,永達素食館 (Vegetarian),Kabupaten Penghu Kota Magong 新生路27號,Vegetarian
?民水果餐創意料理,金門縣金寧鄉伯玉路二段224巷8號,(   +886-82-324-489,24.441293,118.338119,素食,?民水果餐創意料理,Kinmen County Jinning Township 伯玉路二段224巷8號,Vegetarian,?民水果餐創意料理,Kabupaten Kinmen Kecamatan Jinning 伯玉路二段224巷8號,Vegetarian
福澳(沃)村素食園,連江縣南竿鄉福澳(沃)村80號,(  +886-83-622-848,26.157234,119.943398,素食,福澳(沃)村素食園 (Vegetarian),Lienchiang County Nangan Township 福澳(沃)村80號,Vegetarian,福澳(沃)村素食園 (Vegetarian),Kabupaten Lienchiang Kecamatan Nangan 福澳(沃)村80號,Vegetarian
群賢閣蔬食精緻料理,基隆市信義區壽山路21-1 號2 樓,-9875,25.134036,121.752689,素食,群賢閣蔬食精緻料理 (Vegetarian),Keelung City Xinyi District 壽山路21-1 號2 樓,Vegetarian,群賢閣蔬食精緻料理 (Vegetarian),Kota Keelung Distrik Xinyi 壽山路21-1 號2 樓,Vegetarian
金玉食堂蔬食創意料理,基隆市中正區中正路12-1 號, +886-2-2427-0071,25.142001,121.759904,素食,金玉食堂蔬食創意料理 (Vegetarian),Keelung City Zhongzheng District 中正路12-1 號,Vegetarian,金玉食堂蔬食創意料理 (Vegetarian),Kota Keelung Distrik Zhongzheng 中正路12-1 號,Vegetarian
幸福10 號店,基隆市信義區信一路141 巷10 號,-7526,25.129649,121.747443,素食,幸福10 號店,Keelung City Xinyi District 信一路141 巷10 號,Vegetarian,幸福10 號店,Kota Keelung Distrik Xinyi 信一路141 巷10 號,Vegetarian
Miacucina 天母店,臺北市士林區德行西路48 號,-10640,25.104628,121.523125,素食,Miacucina 天母店,Taipei City Shilin District 德行西路48 號,Vegetarian,Miacucina 天母店,Kota Taipei Distrik Shilin 德行西路48 號,Vegetarian
圓禾素膳食府,臺北市萬華區青年路152 巷27 號,-11338,25.020473,121.501691,素食,圓禾素膳食府,Taipei City Wanhua District 青年路152 巷27 號,Vegetarian,圓禾素膳食府,Kota Taipei Distrik Wanhua 青年路152 巷27 號,Vegetarian
阿馬非coffee ,臺北市北投區大業路516 巷2 號,-3136,25.132626,121.497297,素食,阿馬非coffee,Taipei City Beitou District 大業路516 巷2 號,Vegetarian,阿馬非coffee,Kota Taipei Distrik Beitou 大業路516 巷2 號,Vegetarian
蛋奶樹蔬食餐飲,臺北市中山區中山北路一段33巷26 號1 樓,-8438,25.048623,121.522307,素食,蛋奶樹蔬食餐飲 (Vegetarian),Taipei City Zhongshan District 中山北路一段33巷26 號1 樓,Vegetarian,蛋奶樹蔬食餐飲 (Vegetarian),Kota Taipei Distrik Zhongshan 中山北路一段33巷26 號1 樓,Vegetarian
陽明春天 心五藝文創園區店,臺北市士林區菁山路119-1 號,+886-2-2862-0178~9,25.144172,121.559319,素食,陽明春天 心五藝文創園區店,Taipei City Shilin District 菁山路119-1 號,Vegetarian,陽明春天 心五藝文創園區店,Kota Taipei Distrik Shilin 菁山路119-1 號,Vegetarian
陽明春天 忠孝店,臺北市大安區忠孝東路四段98號10 樓,-9717,25.041095,121.546325,素食,陽明春天 忠孝店,Taipei City Da’an District 忠孝東路四段98號10 樓,Vegetarian,陽明春天 忠孝店,Kota Taipei Distrik Daan 忠孝東路四段98號10 樓,Vegetarian
豐味亭異國素食料理,臺北市中山區雙城街3 巷2 號,-7715,25.063188,121.524464,素食,豐味亭異國素食料理 (Vegetarian),Taipei City Zhongshan District 雙城街3 巷2 號,Vegetarian,豐味亭異國素食料理 (Vegetarian),Kota Taipei Distrik Zhongshan 雙城街3 巷2 號,Vegetarian
新卡莎素食西餐廳,臺北市中正區羅斯福路4 段52巷1 號1 樓,-4820,25.014743,121.533406,素食,新卡莎素食西餐廳 (Vegetarian Restaurant),Taipei City Zhongzheng District 羅斯福路4 段52巷1 號1 樓,Vegetarian,新卡莎素食西餐廳 (Vegetarian Restoran),Kota Taipei Distrik Zhongzheng 羅斯福路4 段52巷1 號1 樓,Vegetarian
祥和蔬食精緻料理,臺北市中正區鎮江街1 巷1 號 ,-1850,25.044366,121.521854,素食,祥和蔬食精緻料理 (Vegetarian),Taipei City Zhongzheng District 鎮江街1 巷1 號,Vegetarian,祥和蔬食精緻料理 (Vegetarian),Kota Taipei Distrik Zhongzheng 鎮江街1 巷1 號,Vegetarian
花間蜜蔬食餐廳(京品私房料理),臺北市信義區忠孝東路4 段504號,886-2-2722-3189,25.040928,121.562028,素食,花間蜜蔬食餐廳(京品私房料理) (Vegetarian Restaurant),Taipei City Xinyi District 忠孝東路4 段504號,Vegetarian,花間蜜蔬食餐廳(京品私房料理) (Vegetarian Restoran),Kota Taipei Distrik Xinyi 忠孝東路4 段504號,Vegetarian
和順鄉雲南特色素食料理,臺北市信義區基隆路一段147 巷5 弄46 號,-3899,25.042946,121.566439,素食,和順鄉雲南特色素食料理 (Vegetarian),Taipei City Xinyi District 基隆路一段147 巷5 弄46 號,Vegetarian,和順鄉雲南特色素食料理 (Vegetarian),Kota Taipei Distrik Xinyi 基隆路一段147 巷5 弄46 號,Vegetarian
小心上癮素食麻辣鍋,臺北市松山區南京東路5 段61 之3 號,-2975,25.051733,121.559474,素食,小心上癮素食麻辣鍋 (Vegetarian),Taipei City Songshan District 南京東路5 段61 之3 號,Vegetarian,小心上癮素食麻辣鍋 (Vegetarian),Kota Taipei Distrik Songshan 南京東路5 段61 之3 號,Vegetarian
Soul R. Vegan Caf? 靈魂餐廳,臺北市大安區忠孝東路3 段217 巷1弄6 號,-3252,25.042401,121.539418,素食,Soul R. Vegan Caf? 靈魂餐廳 (Restaurant),Taipei City Da’an District 忠孝東路3 段217 巷1弄6 號,Vegetarian,Soul R. Vegan Caf? 靈魂餐廳 (Restoran),Kota Taipei Distrik Daan 忠孝東路3 段217 巷1弄6 號,Vegetarian
長春素食,臺北市中山區新生北路二段38 號,-7283,25.054652,121.5271,素食,長春素食 (Vegetarian),Taipei City Zhongshan District 新生北路二段38 號,Vegetarian,長春素食 (Vegetarian),Kota Taipei Distrik Zhongshan 新生北路二段38 號,Vegetarian
明德素食園 誠品信義店,臺北市信莪區松高路11 號B2,886-2-2729-8969,25.0397197,121.5658739,素食,明德素食園 誠品信義店 (Vegetarian),Taipei City Xinyi District 松高路11 號B2,Vegetarian,明德素食園 誠品信義店 (Vegetarian),Kota Taipei Distrik Xinyi 松高路11 號B2,Vegetarian
春天素食,臺北市大安區和平東路1 段177 號3樓,-1797,25.026507,121.532531,素食,春天素食 (Vegetarian),Taipei City Da’an District 和平東路1 段177 號3樓,Vegetarian,春天素食 (Vegetarian),Kota Taipei Distrik Daan 和平東路1 段177 號3樓,Vegetarian
漢來蔬食 忠孝店,臺北市大安區忠孝東路四段45 號11 樓,-2975,25.04187,121.544633,素食,漢來蔬食 忠孝店 (Vegetarian),Taipei City Da’an District 忠孝東路四段45 號11 樓,Vegetarian,漢來蔬食 忠孝店 (Vegetarian),Kota Taipei Distrik Daan 忠孝東路四段45 號11 樓,Vegetarian
Vegeter 維珍特 台北松創店,臺北市信義區忠孝東路四段553巷22弄2-1 號,886-2-3762-2312 ,25.043171,121.563055,素食,Vegeter 維珍特 台北松創店,Taipei City Xinyi District 忠孝東路四段553巷22弄2-1 號,Vegetarian,Vegeter 維珍特 台北松創店,Kota Taipei Distrik Xinyi 忠孝東路四段553巷22弄2-1 號,Vegetarian
有哆創意蔬食洋食館,臺北市松山區南京東路5 段33 號,-6500,25.051718,121.558391,素食,有哆創意蔬食洋食館 (Vegetarian),Taipei City Songshan District 南京東路5 段33 號,Vegetarian,有哆創意蔬食洋食館 (Vegetarian),Kota Taipei Distrik Songshan 南京東路5 段33 號,Vegetarian
卡帛咖啡素食烘焙坊義式廚房總店,臺北市大安區復興南路2 段308 巷5 號1 樓,-8668,25.023706,121.542942,素食,卡帛咖啡素食烘焙坊義式廚房總店 (Vegetarian Cafe Kitchen),Taipei City Da’an District 復興南路2 段308 巷5 號1 樓,Vegetarian,卡帛咖啡素食烘焙坊義式廚房總店 (Vegetarian Kafe Dapur),Kota Taipei Distrik Daan 復興南路2 段308 巷5 號1 樓,Vegetarian
食在地 台灣素連鎖餐廳,10491台灣台北市中山區錦州街183號,,25.0603954,121.5309874,素食,食在地 台灣素連鎖餐廳 (Restaurant),10491台灣台北市中山區 錦州街183號,Vegetarian,食在地 台灣素連鎖餐廳 (Restoran),10491台灣台北市中山區 錦州街183號,Vegetarian
觀世音素菜餐廳,臺北市中山區民權東路2 段29 號,-5200,25.062759,121.529292,素食,觀世音素菜餐廳 (Restaurant),Taipei City Zhongshan District 民權東路2 段29 號,Vegetarian,觀世音素菜餐廳 (Restoran),Kota Taipei Distrik Zhongshan 民權東路2 段29 號,Vegetarian
御蓮齋REGAL LOTUS,臺北市松山區南京東路5 段188 號B1,886-2-2761-1259 ,25.051115,121.563609,素食,御蓮齋REGAL LOTUS,Taipei City Songshan District 南京東路5 段188 號B1,Vegetarian,御蓮齋REGAL LOTUS,Kota Taipei Distrik Songshan 南京東路5 段188 號B1,Vegetarian
鈺善閣 台北店,臺北市中正區北平東路14號,-6665,25.046044,121.524461,素食,鈺善閣 台北店,Taipei City Zhongzheng District 北平東路14號,Vegetarian,鈺善閣 台北店,Kota Taipei Distrik Zhongzheng 北平東路14號,Vegetarian
全國健康素食餐飲連鎖,新北市板橋區松柏街3 號,-16660,25.029537,121.473896,素食,全國健康素食餐飲連鎖 (Vegetarian),New Taipei City Banqiao District 松柏街3 號,Vegetarian,全國健康素食餐飲連鎖 (Vegetarian),Kota New Taipei Distrik Banqiao 松柏街3 號,Vegetarian
原粹蔬食作,新北市新店區北新路三段206巷1弄7 號,-15215,24.9846762,121.5415581,素食,原粹蔬食作 (Vegetarian),New Taipei City Xindian District 北新路三段206巷1弄7 號,Vegetarian,原粹蔬食作 (Vegetarian),Kota New Taipei Distrik Xindian 北新路三段206巷1弄7 號,Vegetarian
慈光緣素食,新北市板橋區四維路151 號,-4000,25.025568,121.464764,素食,慈光緣素食 (Vegetarian),New Taipei City Banqiao District 四維路151 號,Vegetarian,慈光緣素食 (Vegetarian),Kota New Taipei Distrik Banqiao 四維路151 號,Vegetarian
慶丸子素食店,新北市淡水區中正路156 號,-3678,25.169795,121.440852,素食,慶丸子素食店 (Vegetarian),New Taipei City Tamsui District 中正路156 號,Vegetarian,慶丸子素食店 (Vegetarian),Kota New Taipei Distrik Tamsui 中正路156 號,Vegetarian
家禾素食坊,新北市淡水區中正路254 號,-7472,25.171267,121.438691,素食,家禾素食坊 (Vegetarian),New Taipei City Tamsui District 中正路254 號,Vegetarian,家禾素食坊 (Vegetarian),Kota New Taipei Distrik Tamsui 中正路254 號,Vegetarian
瞇瞇眼美式蔬食餐廳,新北市中和區新興街15 巷8 號, +886-2-3233-9911 ,25.002681,121.512257,素食,瞇瞇眼美式蔬食餐廳 (Vegetarian Restaurant),New Taipei City Zhonghe District 新興街15 巷8 號,Vegetarian,瞇瞇眼美式蔬食餐廳 (Vegetarian Restoran),Kota New Taipei Distrik Zhonghe 新興街15 巷8 號,Vegetarian
法諾米珈琲蔬食廚房,新北市新莊區建安街9 巷11 號, +886-2-2205-4441 ,25.047835,121.457784,素食,法諾米珈琲蔬食廚房 (Vegetarian Kitchen),New Taipei City Xinzhuang District 建安街9 巷11 號,Vegetarian,法諾米珈琲蔬食廚房 (Vegetarian Dapur),Kota New Taipei Distrik Xinzhuang 建安街9 巷11 號,Vegetarian
山外山創意料理蔬食餐廳,桃園市龍潭區民族路769 巷16 號,-4649,24.842275,121.231205,素食,山外山創意料理蔬食餐廳 (Vegetarian Restaurant),Taoyuan City Longtan District 民族路769 巷16 號,Vegetarian,山外山創意料理蔬食餐廳 (Vegetarian Restoran),Kota Taoyuan Distrik Longtan 民族路769 巷16 號,Vegetarian
梳子．Salud ,桃園市桃園區新埔六街89 號,-1003,25.014488,121.30234,素食,梳子．Salud,Taoyuan City Taoyuan District 新埔六街89 號,Vegetarian,梳子．Salud,Kota Taoyuan Distrik Taoyuan 新埔六街89 號,Vegetarian
熱浪島南洋蔬食茶堂 中壢店,桃園市中壢區中央路216 巷86 弄58-1 號,-9602,24.963762,121.191802,素食,熱浪島南洋蔬食茶堂 中壢店 (Vegetarian Tea),Taoyuan City Zhongli District 中央路216 巷86 弄58-1 號,Vegetarian,熱浪島南洋蔬食茶堂 中壢店 (Vegetarian Teh),Kota Taoyuan Distrik Zhongli 中央路216 巷86 弄58-1 號,Vegetarian
雅善圓蔬食館,桃園市桃園區鎮撫路46 號,-491,24.9980266,121.314659,素食,雅善圓蔬食館 (Vegetarian),Taoyuan City Taoyuan District 鎮撫路46 號,Vegetarian,雅善圓蔬食館 (Vegetarian),Kota Taoyuan Distrik Taoyuan 鎮撫路46 號,Vegetarian
舞蔬弄果,新竹縣竹北市嘉豐南路一段78 號,-5772,24.810536,121.033735,素食,舞蔬弄果,Hsinchu County Zhubei City 嘉豐南路一段78 號,Vegetarian,舞蔬弄果,Kabupaten Hsinchu Kota Zhubei 嘉豐南路一段78 號,Vegetarian
井町日式蔬食料理 ,新竹市北區大同路135 號,886-3-525-3158,24.8065346,120.9671885,素食,井町日式蔬食料理 (Vegetarian),Hsinchu City North District 大同路135 號,Vegetarian,井町日式蔬食料理 (Vegetarian),Kota Hsinchu Distrik Utara 大同路135 號,Vegetarian
荷風素食屋,新竹市東區北大路29 之1 號,-5797,24.812738,120.973291,素食,荷風素食屋 (Vegetarian),Hsinchu City East District 北大路29 之1 號,Vegetarian,荷風素食屋 (Vegetarian),Kota Hsinchu Distrik Timur 北大路29 之1 號,Vegetarian
享家時刻 Home Essence 咖啡廳,宜蘭縣五結鄉五濱路二段201 號,-696,24.685587,121.824053,素食,享家時刻 Home Essence 咖啡廳 (Cafe),Yilan County Wujie Township 五濱路二段201 號,Vegetarian,享家時刻 Home Essence 咖啡廳 (Kafe),Kabupaten Yilan Kecamatan Wujie 五濱路二段201 號,Vegetarian
鹿野苑蔬食料理廚房,宜蘭縣宜蘭市女中路三段111 號,-2383,24.744848,121.745056,素食,鹿野苑蔬食料理廚房 (Vegetarian Kitchen),Yilan County Yilan City 女中路三段111 號,Vegetarian,鹿野苑蔬食料理廚房 (Vegetarian Dapur),Kabupaten Yilan Kota Yilan 女中路三段111 號,Vegetarian
香聚蔬食咖啡館,宜蘭縣宜蘭市宜中路67 號,-1400,24.746753,121.742566,素食,香聚蔬食咖啡館 (Vegetarian Cafe),Yilan County Yilan City 宜中路67 號,Vegetarian,香聚蔬食咖啡館 (Vegetarian Kafe),Kabupaten Yilan Kota Yilan 宜中路67 號,Vegetarian
人間擺渡素食簡餐,宜蘭縣羅東鎮建國街12 號, +886-3-961-5436,24.676445,121.758689,素食,人間擺渡素食簡餐 (Vegetarian),Yilan County Luodong Township 建國街12 號,Vegetarian,人間擺渡素食簡餐 (Vegetarian),Kabupaten Yilan Kecamatan Luodong 建國街12 號,Vegetarian
Happy Soda 快樂蘇打,苗栗縣苗栗市饒平街24 號,-1752,24.561018,120.817709,素食,Happy Soda 快樂蘇打,Miaoli County Miaoli City 饒平街24 號,Vegetarian,Happy Soda 快樂蘇打,Kabupaten Miaoli Kota Miaoli 饒平街24 號,Vegetarian
Mia 彌而蔬食人文館 ,苗栗縣苗栗市新東街197 號,-6417,24.550832,120.822438,素食,Mia 彌而蔬食人文館 (Vegetarian),Miaoli County Miaoli City 新東街197 號,Vegetarian,Mia 彌而蔬食人文館 (Vegetarian),Kabupaten Miaoli Kota Miaoli 新東街197 號,Vegetarian
寬心園連鎖餐廳,408台灣台中市南屯區大業路287號,,24.1535051,120.6481613,素食,寬心園連鎖餐廳 (Restaurant),408台灣台中市南屯區 大業路287號,Vegetarian,寬心園連鎖餐廳 (Restoran),408台灣台中市南屯區 大業路287號,Vegetarian
井町日式蔬食料理 台中店,臺中市北區青島路3 段176 號,-7470,24.168295,120.68336,素食,井町日式蔬食料理 台中店 (Vegetarian),Taichung City North District 青島路3 段176 號,Vegetarian,井町日式蔬食料理 台中店 (Vegetarian),Kota Taichung Distrik Utara 青島路3 段176 號,Vegetarian
White Kitchen 懷特廚房,臺中市北區大德街84 巷1 號 ,-2095,24.158874,120.678867,素食,White Kitchen 懷特廚房 (Kitchen),Taichung City North District 大德街84 巷1 號,Vegetarian,White Kitchen 懷特廚房 (Dapur),Kota Taichung Distrik Utara 大德街84 巷1 號,Vegetarian
得來素,臺中市潭子區勝利路161 號,-8510,24.210576,120.700767,素食,得來素,Taichung City Tanzi District 勝利路161 號,Vegetarian,得來素,Kota Taichung Distrik Tanzi 勝利路161 號,Vegetarian
VegesM 饗蔬職人,臺中市西區美村路一段83 巷10號, +886-4-2326-0203 ,24.152909,120.662173,素食,VegesM 饗蔬職人,Taichung City West District 美村路一段83 巷10號,Vegetarian,VegesM 饗蔬職人,Kota Taichung Distrik Barat 美村路一段83 巷10號,Vegetarian
Vima House 維摩舍,臺中市大里區永隆路153 號,-11485,24.107121,120.676619,素食,Vima House 維摩舍,Taichung City Dali District 永隆路153 號,Vegetarian,Vima House 維摩舍,Kota Taichung Distrik Dali 永隆路153 號,Vegetarian
小王子的花園,臺中市西屯區中平路178 號,-7901,24.176154,120.662832,素食,小王子的花園,Taichung City Xitun District 中平路178 號,Vegetarian,小王子的花園,Kota Taichung Distrik Xitun 中平路178 號,Vegetarian
漱石．蔬食,彰化縣員林市北和街3 號,-3041,23.961111,120.568448,素食,漱石．蔬食 (Vegetarian),Changhua County Yuanlin City 北和街3 號,Vegetarian,漱石．蔬食 (Vegetarian),Kabupaten Changhua Kota Yuanlin 北和街3 號,Vegetarian
陶米人文蔬食,彰化市南郭路一段176 巷32 號,-7651,24.074053,120.547098,素食,陶米人文蔬食 (Vegetarian),Changhua City 南郭路一段176 巷32 號,Vegetarian,陶米人文蔬食 (Vegetarian),Kota Changhua 南郭路一段176 巷32 號,Vegetarian
掬翠拾煙蔬食創作料理,彰化縣鹿港鎮金盛巷10 號,-9008,24.052381,120.434985,素食,掬翠拾煙蔬食創作料理 (Vegetarian),Changhua County Lukang Township 金盛巷10 號,Vegetarian,掬翠拾煙蔬食創作料理 (Vegetarian),Kabupaten Changhua Kecamatan Lukang 金盛巷10 號,Vegetarian
101 Cafe 歐風蔬食烘焙,南投縣南投市營中路239 號,-2481,23.941783,120.684811,素食,101 Cafe 歐風蔬食烘焙 (Vegetarian),Nantou County Nantou City 營中路239 號,Vegetarian,101 Cafe 歐風蔬食烘焙 (Vegetarian),Kabupaten Nantou Kota Nantou 營中路239 號,Vegetarian
荷緣素食,南投縣南投市省府路89 號,-8812,23.955022,120.683918,素食,荷緣素食 (Vegetarian),Nantou County Nantou City 省府路89 號,Vegetarian,荷緣素食 (Vegetarian),Kabupaten Nantou Kota Nantou 省府路89 號,Vegetarian
明雅小棧 素食,南投縣魚池鄉魚池街557 巷1 號,-15336,23.900101,120.932315,素食,明雅小棧 素食 (Vegetarian),Nantou County Yuchi Township 魚池街557 巷1 號,Vegetarian,明雅小棧 素食 (Vegetarian),Kabupaten Nantou Kecamatan Yuchi 魚池街557 巷1 號,Vegetarian
望溪樓,南投縣草屯鎮南埔里中正路233-80號,-9378,23.982218,120.732865,素食,望溪樓,Nantou County Caotun Township 南埔里中正路233-80號,Vegetarian,望溪樓,Kabupaten Nantou Kecamatan Caotun 南埔里中正路233-80號,Vegetarian
奇香妙草蔬食館,雲林縣斗六市慶生路10 號,345,23.713303,120.53965,素食,奇香妙草蔬食館 (Vegetarian),Yunlin County Douliu City 慶生路10 號,Vegetarian,奇香妙草蔬食館 (Vegetarian),Kabupaten Yunlin Kota Douliu 慶生路10 號,Vegetarian
聖荷上品咖啡坊,雲林縣古坑鄉桂林村桃源8 之6號,-1068,23.601164,120.595386,素食,聖荷上品咖啡坊 (Cafe),Yunlin County Gukeng Township 桂林村桃源8 之6號,Vegetarian,聖荷上品咖啡坊 (Kafe),Kabupaten Yunlin Kecamatan Gukeng 桂林村桃源8 之6號,Vegetarian
巴甜養生蔬食咖啡簡餐,嘉義市東區大雅路一段858 巷39 號,-1456,23.482166,120.484706,素食,巴甜養生蔬食咖啡簡餐 (Vegetarian Cafe),Chiayi City East District 大雅路一段858 巷39 號,Vegetarian,巴甜養生蔬食咖啡簡餐 (Vegetarian Kafe),Kota Chiayi Distrik Timur 大雅路一段858 巷39 號,Vegetarian
養聖齋素食,臺南市中西區民權路二段19 號, +886-6-223-9958,22.993817,120.206183,素食,養聖齋素食 (Vegetarian),Tainan City West Central District 民權路二段19 號,Vegetarian,養聖齋素食 (Vegetarian),Kota Tainan Distrik West Central 民權路二段19 號,Vegetarian
古密蔬食,臺南市安平區國平路552 巷57 號, +886-6-295-1700 ,22.996609,120.173037,素食,古密蔬食 (Vegetarian),Tainan City Anping District 國平路552 巷57 號,Vegetarian,古密蔬食 (Vegetarian),Kota Tainan Distrik Anping 國平路552 巷57 號,Vegetarian
天心岩蔬食,臺南市南區中華西路一段312 號,-2573,22.98384,120.186471,素食,天心岩蔬食 (Vegetarian),Tainan City South District 中華西路一段312 號,Vegetarian,天心岩蔬食 (Vegetarian),Kota Tainan Distrik Selatan 中華西路一段312 號,Vegetarian
食蔬茶齋 ? 蔬果料理,臺南市安平區郡平路335號2樓, +886-6-299-0509 ,22.989468,120.162831,素食,食蔬茶齋 ? 蔬果料理 (Tea),Tainan City Anping District 郡平路335號2樓,Vegetarian,食蔬茶齋 ? 蔬果料理 (Teh),Kota Tainan Distrik Anping 郡平路335號2樓,Vegetarian
緣園素食,臺南市北區公園路1092巷39號,-2342,23.0191768,120.2177694,素食,緣園素食 (Vegetarian),Tainan City North District 公園路1092巷39號,Vegetarian,緣園素食 (Vegetarian),Kota Tainan Distrik Utara 公園路1092巷39號,Vegetarian
羽儂素食餐廳,臺南市佳里區佳東路457 號,-3376,23.164526,120.182153,素食,羽儂素食餐廳 (Vegetarian Restaurant),Tainan City Jiali District 佳東路457 號,Vegetarian,羽儂素食餐廳 (Vegetarian Restoran),Kota Tainan Distrik Jiali 佳東路457 號,Vegetarian
好野菜 Richvege ,高雄市苓雅區廣州一街127 之4 號,-9472,22.623241,120.317324,素食,好野菜 Richvege,Kaohsiung City Lingya District 廣州一街127 之4 號,Vegetarian,好野菜 Richvege,Kota Kaohsiung Distrik Lingya 廣州一街127 之4 號,Vegetarian
上海素食餐廳連鎖,900台灣屏東縣屏東市中山路148巷1號,,22.6830303,120.4846372,素食,上海素食餐廳連鎖 (Vegetarian Restaurant),900台灣屏東縣屏東市 中山路148巷1號,Vegetarian,上海素食餐廳連鎖 (Vegetarian Restoran),900台灣屏東縣屏東市 中山路148巷1號,Vegetarian
慈香庭蔬食餐飲,高雄市三民區九如一路613 號,-7802,22.63929,120.324724,素食,慈香庭蔬食餐飲 (Vegetarian),Kaohsiung City Sanmin District 九如一路613 號,Vegetarian,慈香庭蔬食餐飲 (Vegetarian),Kota Kaohsiung Distrik Sanmin 九如一路613 號,Vegetarian
人道素菜,高雄市三民區九如一路426 號,-741,22.638895,120.330652,素食,人道素菜,Kaohsiung City Sanmin District 九如一路426 號,Vegetarian,人道素菜,Kota Kaohsiung Distrik Sanmin 九如一路426 號,Vegetarian
蔬醒健康蔬食,高雄市左營區自由三路507 號,-2747,22.67748,120.313009,素食,蔬醒健康蔬食 (Vegetarian),Kaohsiung City Zuoying District 自由三路507 號,Vegetarian,蔬醒健康蔬食 (Vegetarian),Kota Kaohsiung Distrik Zuoying 自由三路507 號,Vegetarian
打舖宿食1號店,屏東縣萬丹鄉中興路二段657號, +886-8-776-0210 ,22.584029,120.488274,素食,打舖宿食1號店,Pingtung County Wandan Township 中興路二段657號,Vegetarian,打舖宿食1號店,Kabupaten Pingtung Kecamatan Wandan 中興路二段657號,Vegetarian
六度素食餐廳,屏東縣屏東市勝利東路81 號,-8371,22.677516,120.49659,素食,六度素食餐廳 (Vegetarian Restaurant),Pingtung County Pingtung City 勝利東路81 號,Vegetarian,六度素食餐廳 (Vegetarian Restoran),Kabupaten Pingtung Kota Pingtung 勝利東路81 號,Vegetarian
大寶地素食,屏東縣屏東市中正路702-8 號, +886-8-738-5118 ,22.689606,120.499406,素食,大寶地素食 (Vegetarian),Pingtung County Pingtung City 中正路702-8 號,Vegetarian,大寶地素食 (Vegetarian),Kabupaten Pingtung Kota Pingtung 中正路702-8 號,Vegetarian
安巒山莊休閒農場,屏東縣萬巒鄉永康路134 之1 號, +886-8-781-1345 ,22.566568,120.562352,素食,安巒山莊休閒農場,Pingtung County Wanluan Township 永康路134 之1 號,Vegetarian,安巒山莊休閒農場,Kabupaten Pingtung Kecamatan Wanluan 永康路134 之1 號,Vegetarian
美滿蔬房,花蓮縣花蓮市明仁二街177 巷8 號, +886-912-519-759,23.989151,121.574996,素食,美滿蔬房,Hualien County Hualien City 明仁二街177 巷8 號,Vegetarian,美滿蔬房,Kabupaten Hualien Kota Hualien 明仁二街177 巷8 號,Vegetarian
常春藤素食,花蓮縣花蓮市富安路22 號, +886-3-856-9069 ,23.992659,121.59838,素食,常春藤素食 (Vegetarian),Hualien County Hualien City 富安路22 號,Vegetarian,常春藤素食 (Vegetarian),Kabupaten Hualien Kota Hualien 富安路22 號,Vegetarian
綠色大地,花蓮縣花蓮市建國路142 號, +886-3-835-0028,23.983748,121.60214,素食,綠色大地,Hualien County Hualien City 建國路142 號,Vegetarian,綠色大地,Kabupaten Hualien Kota Hualien 建國路142 號,Vegetarian
台東十方素食餐廳,臺東縣台東市光明路108 號 ,-1542,22.755823,121.15249,素食,台東十方素食餐廳 (Vegetarian Restaurant),Taitung County Taitung City 光明路108 號,Vegetarian,台東十方素食餐廳 (Vegetarian Restoran),Kabupaten Taitung Kota Taitung 光明路108 號,Vegetarian
歐拉蔬食館,臺東縣台東市漢中街245 號, +886-8-934-5869 ,22.760391,121.135751,素食,歐拉蔬食館 (Vegetarian),Taitung County Taitung City 漢中街245 號,Vegetarian,歐拉蔬食館 (Vegetarian),Kabupaten Taitung Kota Taitung 漢中街245 號,Vegetarian
舒食男孩,臺東縣池上鄉福文村中華路69號, +886-8-986-3073,23.1259239,121.2170325,素食,舒食男孩,Taitung County Chishang Township 福文村中華路69號,Vegetarian,舒食男孩,Kabupaten Taitung Kecamatan Chishang 福文村中華路69號,Vegetarian
津旺素食,澎湖馬公市三民路46 號,-2837,23.567383,119.568132,素食,津旺素食 (Vegetarian),澎湖馬公市 三民路46 號,Vegetarian,津旺素食 (Vegetarian),澎湖馬公市 三民路46 號,Vegetarian
祥富素食館,金門縣金城鎮環島北路23 號,217,24.440295,118.321559,素食,祥富素食館 (Vegetarian),Kinmen County Jincheng Township 環島北路23 號,Vegetarian,祥富素食館 (Vegetarian),Kabupaten Kinmen Kecamatan Jincheng 環島北路23 號,Vegetarian
臨海芋蔬坊,金門縣金城鎮民權路30 巷3 弄1 號, +886-82-373-587、+886-937-392-902,24.432864,118.313333,素食,臨海芋蔬坊,Kinmen County Jincheng Township 民權路30 巷3 弄1 號,Vegetarian,臨海芋蔬坊,Kabupaten Kinmen Kecamatan Jincheng 民權路30 巷3 弄1 號,Vegetarian
楊師姊素食館,連江縣南竿鄉復興村159 號, +886-836-23252 、 +886-953-360615,26.164559,119.958154,素食     ,楊師姊素食館 (Vegetarian),Lienchiang County Nangan Township 復興村159 號,Vegetarian,楊師姊素食館 (Vegetarian),Kabupaten Lienchiang Kecamatan Nangan 復興村159 號,Vegetarian
